OBJECT_NAME,OBJECT_ID,EPOCH,MEAN_MOTION,ECCENTRICITY,INCLINATION,RA_OF_ASC_NODE,ARG_OF_PERICENTER,MEAN_ANOMALY,EPHEMERIS_TYPE,CLASSIFICATION_TYPE,NORAD_CAT_ID,ELEMENT_SET_NO,REV_AT_EPOCH,BSTAR,MEAN_MOTION_DOT,MEAN_MOTION_DDOT
QB50P1,2014-033R,2026-05-20T00:05:20.865408,15.17775159,.0007644,98.0974,149.1842,333.1747,26.9089,0,U,40025,999,64875,.27037E-3,.5389E-4,0
DTUSAT-2,2014-033W,2026-05-19T23:11:02.335200,15.14608485,.0007147,98.0868,135.9119,345.0039,15.0978,0,U,40030,999,64841,.24052E-3,.4369E-4,0
QB50P2,2014-033Y,2026-05-19T23:06:34.358688,15.14755956,.000565,98.0754,135.0967,272.1099,87.9484,0,U,40032,999,64839,.23558E-3,.4295E-4,0
PERSEUS-M1,2014-033AF,2026-05-19T09:37:15.680352,14.95525884,.00126742,97.9635,83.0654,39.4863,320.7279,0,U,40039,999,64633,.11740598E-3,.1242E-4,0
POLYITAN-1,2014-033AJ,2026-05-20T01:04:48.997920,15.32186242,.0005784,98.0962,163.6665,234.7001,125.3698,0,U,40042,999,64928,.42312E-3,.13074E-3,0
TIGRISAT,2014-033AK,2026-05-20T03:42:14.480064,14.85027277,.0049856,97.7800,290.8168,165.0739,195.1962,0,U,40043,999,64146,.16551E-3,.1389E-4,0
CANX-4,2014-034C,2026-05-20T04:27:00.853056,14.81206191,.001412,98.3156,14.4664,100.0392,260.2413,0,U,40055,999,64038,.79736E-4,.564E-5,0
CANX-5,2014-034D,2026-05-20T04:25:13.416384,14.81223276,.0014113,98.3159,14.5070,100.2391,260.0413,0,U,40056,999,63119,.80344E-4,.569E-5,0
GONETS-M 10,2014-036C,2026-05-20T05:16:22.895616,12.42944445,.002146,82.5099,325.0509,200.9703,159.0499,0,U,40063,999,53877,-.6164E-3,-.76E-6,0
METEOR-M 2,2014-037A,2026-05-20T04:48:57.528576,14.21454045,.0006835,98.5104,116.9337,112.1845,248.0058,0,U,40069,999,61534,.2156E-3,.429E-5,0
DX1,2014-037C,2026-05-20T03:43:34.240224,14.89884399,.0007545,98.3856,100.1620,14.5580,345.5851,0,U,40071,999,64193,.8013E-4,.708E-5,0
UKUBE-1,2014-037F,2026-05-19T22:25:26.938848,15.13046315,.0000498,98.4244,140.2507,135.0570,225.0699,0,U,40074,999,64428,.33816E-3,.5901E-4,0
GAOFEN-2,2014-049A,2026-05-20T04:52:23.659968,14.80866151,.0006614,98.0118,204.4347,335.0720,25.0172,0,U,40118,999,63509,.84921E-4,.602E-5,0
BRITE-PL2 (HEWELIUSZ),2014-049B,2026-05-19T05:58:46.909056,14.94470930,.0013642,97.9066,251.0338,200.1054,159.9630,0,U,40119,999,63712,.13507E-3,.14E-4,0
CBERS 4,2014-079A,2026-05-20T03:45:08.842176,14.35500044,.0002098,98.3543,197.8644,97.3968,262.7456,0,U,40336,999,59993,.45814E-5,-.29E-6,0
SMAP,2015-003A,2026-05-20T04:22:18.796800,14.63411129,.0001199,98.1283,147.6737,70.8200,289.3132,0,U,40376,999,60352,.57087E-4,.248E-5,0
GONETS-M 11,2015-020A,2026-05-20T03:44:54.555072,12.42876300,.001739,82.4888,48.4566,63.7848,296.5017,0,U,40552,999,50525,.11085E-2,.164E-5,0
GONETS-M 12,2015-020B,2026-05-20T03:07:11.716608,12.42890027,.0016324,82.4922,49.5893,49.5780,310.6721,0,U,40553,999,50524,-.50607E-4,.3E-7,0
GONETS-M 13,2015-020C,2026-05-20T04:24:14.567616,12.42869001,.0014771,82.4884,48.1792,35.6140,324.5922,0,U,40554,999,50522,.13448E-3,.29E-6,0
DMC3-FM1,2015-032A,2026-05-20T04:31:03.185184,14.85704821,.0006502,97.6490,6.4566,133.4374,226.7383,0,U,40715,999,58575,.11895E-3,.981E-5,0
DMC3-FM2,2015-032B,2026-05-20T05:02:56.890752,14.85709200,.0006856,97.6547,8.0325,138.7104,221.4632,0,U,40716,999,58575,.5998E-4,.469E-5,0
DMC3-FM3,2015-032C,2026-05-20T03:59:16.943712,14.85696164,.0005972,97.6598,9.7249,137.4635,222.7044,0,U,40717,999,58575,-.60383E-5,-.104E-5,0
CARBONITE 1 (CBNT-1),2015-032D,2026-05-20T02:58:56.578944,14.83490721,.0015281,97.6497,319.3696,32.1409,328.0734,0,U,40718,999,58518,.14728E-3,.1162E-4,0
LILACSAT-2,2015-049K,2026-05-20T03:24:22.466016,15.50432067,.0006798,97.4675,175.9343,13.3321,346.8109,0,U,40908,999,59140,.24503E-3,.13862E-3,0
COSMOS 2507 (RODNIK-S 13),2015-050A,2026-05-20T05:17:01.988160,12.42925609,.001108,82.4906,97.0816,53.6804,306.5297,0,U,40920,999,48338,-.28049E-3,-.29E-6,0
COSMOS 2508 (RODNIK-S 14),2015-050B,2026-05-20T04:11:51.194976,12.42912626,.0015526,82.4859,95.6255,83.7936,276.4912,0,U,40921,999,48336,-.68328E-3,-.85E-6,0
COSMOS 2509 (RODNIK-S 15),2015-050C,2026-05-20T04:40:08.301792,12.42882403,.001575,82.4868,95.7127,99.7717,260.5142,0,U,40922,999,48340,-.35629E-3,-.39E-6,0
