QB50P1                  
1 40025U 14033R   26140.00371372  .00005389  00000+0  27037-3 0  9994
2 40025  98.0974 149.1842 0007644 333.1747  26.9089 15.17775159648750
DTUSAT-2                
1 40030U 14033W   26139.96599925  .00004369  00000+0  24052-3 0  9990
2 40030  98.0868 135.9119 0007147 345.0039  15.0978 15.14608485648415
QB50P2                  
1 40032U 14033Y   26139.96289767  .00004295  00000+0  23558-3 0  9990
2 40032  98.0754 135.0967 0005650 272.1099  87.9484 15.14755956648399
PERSEUS-M1              
1 40039U 14033AF  26139.40087593  .00001242  00000+0  11741-3 0  9999
2 40039  97.9635  83.0654 0012674  39.4863 320.7279 14.95525884646339
POLYITAN-1              
1 40042U 14033AJ  26140.04501155  .00013074  00000+0  42312-3 0  9994
2 40042  98.0962 163.6665 0005784 234.7001 125.3698 15.32186242649287
TIGRISAT                
1 40043U 14033AK  26140.15433426  .00001389  00000+0  16551-3 0  9994
2 40043  97.7800 290.8168 0049856 165.0739 195.1962 14.85027277641468
CANX-4                  
1 40055U 14034C   26140.18542654  .00000564  00000+0  79736-4 0  9994
2 40055  98.3156  14.4664 0014120 100.0392 260.2413 14.81206191640388
CANX-5                  
1 40056U 14034D   26140.18418306  .00000569  00000+0  80344-4 0  9993
2 40056  98.3159  14.5070 0014113 100.2391 260.0413 14.81223276631197
GONETS-M 10             
1 40063U 14036C   26140.21970944 -.00000076  00000+0 -61640-3 0  9990
2 40063  82.5099 325.0509 0021460 200.9703 159.0499 12.42944445538772
METEOR-M 2              
1 40069U 14037A   26140.20066584  .00000429  00000+0  21560-3 0  9999
2 40069  98.5104 116.9337 0006835 112.1845 248.0058 14.21454045615348
DX1                     
1 40071U 14037C   26140.15525741  .00000708  00000+0  80130-4 0  9990
2 40071  98.3856 100.1620 0007545  14.5580 345.5851 14.89884399641934
UKUBE-1                 
1 40074U 14037F   26139.93433957  .00005901  00000+0  33816-3 0  9992
2 40074  98.4244 140.2507 0000498 135.0570 225.0699 15.13046315644285
GAOFEN-2                
1 40118U 14049A   26140.20305162  .00000602  00000+0  84921-4 0  9999
2 40118  98.0118 204.4347 0006614 335.0720  25.0172 14.80866151635094
BRITE-PL2 (HEWELIUSZ)   
1 40119U 14049B   26139.24915404  .00001400  00000+0  13507-3 0  9996
2 40119  97.9066 251.0338 0013642 200.1054 159.9630 14.94470930637127
CBERS 4                 
1 40336U 14079A   26140.15635234 -.00000029  00000+0  45814-5 0  9997
2 40336  98.3543 197.8644 0002098  97.3968 262.7456 14.35500044599933
SMAP                    
1 40376U 15003A   26140.18216200  .00000248  00000+0  57087-4 0  9996
2 40376  98.1283 147.6737 0001199  70.8200 289.3132 14.63411129603521
GONETS-M 11             
1 40552U 15020A   26140.15618698  .00000164  00000+0  11085-2 0  9998
2 40552  82.4888  48.4566 0017390  63.7848 296.5017 12.42876300505255
GONETS-M 12             
1 40553U 15020B   26140.12999672  .00000003  00000+0 -50607-4 0  9998
2 40553  82.4922  49.5893 0016324  49.5780 310.6721 12.42890027505244
GONETS-M 13             
1 40554U 15020C   26140.18350194  .00000029  00000+0  13448-3 0  9993
2 40554  82.4884  48.1792 0014771  35.6140 324.5922 12.42869001505228
DMC3-FM1                
1 40715U 15032A   26140.18823131  .00000981  00000+0  11895-3 0  9992
2 40715  97.6490   6.4566 0006502 133.4374 226.7383 14.85704821585750
DMC3-FM2                
1 40716U 15032B   26140.21038068  .00000469  00000+0  59980-4 0  9993
2 40716  97.6547   8.0325 0006856 138.7104 221.4632 14.85709200585751
DMC3-FM3                
1 40717U 15032C   26140.16616833 -.00000104  00000+0 -60383-5 0  9998
2 40717  97.6598   9.7249 0005972 137.4635 222.7044 14.85696164585759
CARBONITE 1 (CBNT-1)    
1 40718U 15032D   26140.12426596  .00001162  00000+0  14728-3 0  9993
2 40718  97.6497 319.3696 0015281  32.1409 328.0734 14.83490721585180
LILACSAT-2              
1 40908U 15049K   26140.14192669  .00013862  00000+0  24503-3 0  9997
2 40908  97.4675 175.9343 0006798  13.3321 346.8109 15.50432067591409
COSMOS 2507 (RODNIK-S *)
1 40920U 15050A   26140.22016190 -.00000029  00000+0 -28049-3 0  9998
2 40920  82.4906  97.0816 0011080  53.6804 306.5297 12.42925609483381
COSMOS 2508 (RODNIK-S *)
1 40921U 15050B   26140.17489809 -.00000085  00000+0 -68328-3 0  9990
2 40921  82.4859  95.6255 0015526  83.7936 276.4912 12.42912626483361
COSMOS 2509 (RODNIK-S *)
1 40922U 15050C   26140.19454053 -.00000039  00000+0 -35629-3 0  9993
2 40922  82.4868  95.7127 0015750  99.7717 260.5142 12.42882403483407
